NORAD_CAT_ID,OBJECT_NAME,OBJECT_TYPE,EPOCH,MEAN_MOTION,ECCENTRICITY,INCLINATION,RA_OF_ASC_NODE,ARG_OF_PERICENTER,MEAN_ANOMALY,BSTAR,MEAN_MOTION_DOT,MEAN_MOTION_DDOT,TLE_LINE0,TLE_LINE1,TLE_LINE2,SEMIMAJOR_AXIS,PERIOD,APOGEE,PERIGEE,DECAYED
52562.0,STARLINK-3957,PAYLOAD,2023-07-28 23:44:24,15.08858319,9.8e-05,53.2171,84.9377,86.8623,273.2481,9.6706e-05,1.252e-05,0.0,0 STARLINK-3957,1 52562U 22051AF  23209.98916699  .00001252  00000-0  96706-4 0  9995,2 52562  53.2171  84.9377 0000980  86.8623 273.2481 15.08858319 67524,6917.824,95.436,540.367,539.011,0.0
52562.0,STARLINK-3957,PAYLOAD,2023-07-29 18:49:02,15.08840693,0.0001174,53.2163,81.3701,84.6745,275.4381,0.00025777,3.817e-05,0.0,0 STARLINK-3957,1 52562U 22051AF  23210.78405983  .00003817  00000-0  25777-3 0  9992,2 52562  53.2163  81.3701 0001174  84.6745 275.4381 15.08840693 67646,6917.878,95.438,540.555,538.931,0.0
52562.0,STARLINK-3957,PAYLOAD,2023-07-30 01:10:34,15.08846212,0.0001115,53.2168,80.1795,84.616,275.4959,0.00019586,2.831e-05,0.0,0 STARLINK-3957,1 52562U 22051AF  23211.04901273  .00002831  00000-0  19586-3 0  9991,2 52562  53.2168  80.1795 0001115  84.6160 275.4959 15.08846212 67685,6917.861,95.437,540.498,538.955,0.0
52562.0,STARLINK-3957,PAYLOAD,2023-07-30 18:39:49,15.08848984,0.0001071,53.2174,76.9055,95.6798,264.4316,-5.3824e-05,-1.145e-05,0.0,0 STARLINK-3957,1 52562U 22051AF  23211.77765527 -.00001145  00000-0 -53824-4 0  9994,2 52562  53.2174  76.9055 0001071  95.6798 264.4316 15.08848984 67799,6917.853,95.437,540.459,538.977,0.0
52562.0,STARLINK-3957,PAYLOAD,2023-07-31 18:30:37,15.08836066,0.0001227,53.2181,72.4473,99.7927,260.3203,-1.845e-05,-5.81e-06,0.0,0 STARLINK-3957,1 52562U 22051AF  23212.77126218 -.00000581  00000-0 -18450-4 0  9992,2 52562  53.2181  72.4473 0001227  99.7927 260.3203 15.08836066 67949,6917.892,95.438,540.606,538.909,0.0
52562.0,STARLINK-3957,PAYLOAD,2023-08-02 00:42:56,15.08848137,0.0001098,53.2176,66.7978,90.452,269.6598,9.5169e-05,1.227e-05,0.0,0 STARLINK-3957,1 52562U 22051AF  23214.02981502  .00001227  00000-0  95169-4 0  9995,2 52562  53.2176  66.7978 0001098  90.4520 269.6598 15.08848137 68135,6917.856,95.437,540.48,538.961,0.0
52562.0,STARLINK-3957,PAYLOAD,2023-08-02 07:04:28,15.08842246,0.0001199,53.2181,65.6087,96.719,263.3938,4.2241e-05,3.85e-06,0.0,0 STARLINK-3957,1 52562U 22051AF  23214.29477942  .00000385  00000-0  42241-4 0  9999,2 52562  53.2181  65.6087 0001199  96.7190 263.3938 15.08842246 68172,6917.874,95.437,540.568,538.909,0.0
52562.0,STARLINK-3957,PAYLOAD,2023-08-03 00:33:43,15.08850925,0.0001173,53.2165,62.3368,91.211,268.9017,0.00025754,3.814e-05,0.0,0 STARLINK-3957,1 52562U 22051AF  23215.02341507  .00003814  00000-0  25754-3 0  9997,2 52562  53.2165  62.3368 0001173  91.2110 268.9017 15.08850925 68288,6917.847,95.437,540.523,538.901,0.0
52562.0,STARLINK-3957,PAYLOAD,2023-08-03 18:02:58,15.08840697,0.0001067,53.2167,59.0596,95.6296,264.4818,1.9619e-06,-2.57e-06,0.0,0 STARLINK-3957,1 52562U 22051AF  23215.75206056 -.00000257  00000-0  19619-5 0  9990,2 52562  53.2167  59.0596 0001067  95.6296 264.4818 15.08840697 68398,6917.878,95.438,540.481,539.005,0.0
52562.0,STARLINK-3957,PAYLOAD,2023-08-04 13:07:36,15.0883412,0.0001184,53.2166,55.4984,71.4298,288.6823,3.36e-05,2.47e-06,0.0,0 STARLINK-3957,1 52562U 22051AF  23216.54694797  .00000247  00000-0  33600-4 0  9994,2 52562  53.2166  55.4984 0001184  71.4298 288.6823 15.08834120 68514,6917.898,95.438,540.582,538.944,0.0
52562.0,STARLINK-3957,PAYLOAD,2023-08-04 22:39:54,15.08846265,0.0001235,53.2167,53.7151,70.2235,289.889,0.00016838,2.393e-05,0.0,0 STARLINK-3957,1 52562U 22051AF  23216.94438264  .00002393  00000-0  16838-3 0  9990,2 52562  53.2167  53.7151 0001235  70.2235 289.8890 15.08846265 68573,6917.861,95.437,540.581,538.872,0.0
52562.0,STARLINK-3957,PAYLOAD,2023-08-06 06:27:37,15.08843988,0.0001134,53.2165,47.7676,80.3865,279.7255,0.00012807,1.751e-05,0.0,0 STARLINK-3957,1 52562U 22051AF  23218.26918090  .00001751  00000-0  12807-3 0  9996,2 52562  53.2165  47.7676 0001134  80.3865 279.7255 15.08843988 68779,6917.868,95.437,540.518,538.949,0.0
52562.0,STARLINK-3957,PAYLOAD,2023-08-06 19:10:43,15.08822413,0.0001057,53.2169,45.3871,102.0733,258.0378,-0.00027969,-4.734e-05,0.0,0 STARLINK-3957,1 52562U 22051AF  23218.79911169 -.00004734  00000-0 -27969-3 0  9995,2 52562  53.2169  45.3871 0001057 102.0733 258.0378 15.08822413 68859,6917.934,95.439,540.53,539.068,0.0
52562.0,STARLINK-3957,PAYLOAD,2023-08-07 19:01:31,15.08826722,9.27e-05,53.218,40.926,103.3366,256.7729,0.0001904,2.743e-05,0.0,0 STARLINK-3957,1 52562U 22051AF  23219.79272146  .00002743  00000-0  19040-3 0  9998,2 52562  53.2180  40.9260 0000927 103.3366 256.7729 15.08826722 69006,6917.921,95.438,540.427,539.145,0.0
52562.0,STARLINK-3957,PAYLOAD,2023-08-08 18:52:18,15.08853779,7.06e-05,53.217,36.4668,112.8605,247.2462,0.00078894,0.00012295,0.0,0 STARLINK-3957,1 52562U 22051AF  23220.78632154  .00012295  00000-0  78894-3 0  9993,2 52562  53.2170  36.4668 0000706 112.8605 247.2462 15.08853779 69150,6917.838,95.437,540.192,539.215,0.0
52562.0,STARLINK-3957,PAYLOAD,2023-08-09 04:24:36,15.08878205,7.02e-05,53.2174,34.6825,108.9802,251.1267,0.0011752,0.00018484,0.0,0 STARLINK-3957,1 52562U 22051AF  23221.18375182  .00018484  00000-0  11752-2 0  9998,2 52562  53.2174  34.6825 0000702 108.9802 251.1267 15.08878205 69215,6917.764,95.435,540.114,539.143,0.0
52562.0,STARLINK-3957,PAYLOAD,2023-08-10 10:36:54,15.08849634,0.0002983,53.2168,29.033,88.4601,271.6733,0.0006843,0.00010622,0.0,0 STARLINK-3957,1 52562U 22051AF  23222.44229766  .00010622  00000-0  68430-3 0  9996,2 52562  53.2168  29.0330 0002983  88.4601 271.6733 15.08849634 69409,6917.851,95.437,541.78,537.652,0.0
52562.0,STARLINK-3957,PAYLOAD,2023-08-10 15:23:04,15.08822464,0.0002186,53.2184,28.1409,87.0443,273.0799,0.00038277,5.806e-05,0.0,0 STARLINK-3957,1 52562U 22051AF  23222.64102050  .00005806  00000-0  38277-3 0  9998,2 52562  53.2184  28.1409 0002186  87.0443 273.0799 15.08822464 69431,6917.934,95.439,541.311,538.287,0.0
52562.0,STARLINK-3957,PAYLOAD,2023-08-11 10:27:42,15.08822883,0.0001261,53.2167,24.5714,92.5375,267.5762,0.00038174,5.79e-05,0.0,0 STARLINK-3957,1 52562U 22051AF  23223.43590842  .00005790  00000-0  38174-3 0  9994,2 52562  53.2167  24.5714 0001261  92.5375 267.5762 15.08822883 69555,6917.933,95.439,540.67,538.925,0.0
52562.0,STARLINK-3957,PAYLOAD,2023-08-11 16:49:14,15.08837031,0.0001107,53.2162,23.3829,92.0362,268.0757,0.00058941,9.104e-05,0.0,0 STARLINK-3957,1 52562U 22051AF  23223.70086694  .00009104  00000-0  58941-3 0  9996,2 52562  53.2162  23.3829 0001107  92.0362 268.0757 15.08837031 69599,6917.889,95.438,540.52,538.989,0.0
52562.0,STARLINK-3957,PAYLOAD,2023-08-12 10:18:29,15.08833764,8.41e-05,53.217,20.1123,59.4793,300.6282,0.00036665,5.551e-05,0.0,0 STARLINK-3957,1 52562U 22051AF  23224.42951069  .00005551  00000-0  36665-3 0  9994,2 52562  53.2170  20.1123 0000841  59.4793 300.6282 15.08833764 69707,6917.899,95.438,540.346,539.183,0.0
52562.0,STARLINK-3957,PAYLOAD,2023-08-12 16:40:02,15.08850216,7.53e-05,53.2163,18.9228,86.5693,273.5385,0.00082795,0.00012917,0.0,0 STARLINK-3957,1 52562U 22051AF  23224.69446810  .00012917  00000-0  82795-3 0  9995,2 52562  53.2163  18.9228 0000753  86.5693 273.5385 15.08850216 69749,6917.849,95.437,540.235,539.193,0.0
52562.0,STARLINK-3957,PAYLOAD,2023-08-13 10:09:16,15.08849266,0.0001887,53.2159,15.6509,85.2253,274.8955,0.00092127,0.00014408,0.0,0 STARLINK-3957,1 52562U 22051AF  23225.42311176  .00014408  00000-0  92127-3 0  9990,2 52562  53.2159  15.6509 0001887  85.2253 274.8955 15.08849266 69859,6917.852,95.437,541.022,538.412,0.0
52562.0,STARLINK-3957,PAYLOAD,2023-08-13 16:30:49,15.08840275,0.0001456,53.2161,14.4621,86.4256,273.6903,0.00028319,4.222e-05,0.0,0 STARLINK-3957,1 52562U 22051AF  23225.68807261  .00004222  00000-0  28319-3 0  9998,2 52562  53.2161  14.4621 0001456  86.4256 273.6903 15.08840275 69897,6917.88,95.438,540.752,538.737,0.0
52562.0,STARLINK-3957,PAYLOAD,2023-08-14 13:10:50,15.08840874,0.0001405,53.2172,10.5963,84.8745,275.2407,0.00026315,3.903e-05,0.0,0 STARLINK-3957,1 52562U 22051AF  23226.54919464  .00003903  00000-0  26315-3 0  9992,2 52562  53.2172  10.5963 0001405  84.8745 275.2407 15.08840874 70023,6917.878,95.437,540.715,538.771,0.0
52562.0,STARLINK-3957,PAYLOAD,2023-08-15 16:12:23,15.08850232,0.0001326,53.2177,5.5407,84.9968,275.1175,0.00031245,4.69e-05,0.0,0 STARLINK-3957,1 52562U 22051AF  23227.67527097  .00004690  00000-0  31245-3 0  9996,2 52562  53.2177   5.5407 0001326  84.9968 275.1175 15.08850232 70193,6917.849,95.437,540.631,538.797,0.0
52562.0,STARLINK-3957,PAYLOAD,2023-08-16 09:41:38,15.08839652,0.0001887,53.2182,2.2698,88.6244,271.4964,5.2506e-05,5.48e-06,0.0,0 STARLINK-3957,1 52562U 22051AF  23228.40391492  .00000548  00000-0  52506-4 0  9998,2 52562  53.2182   2.2698 0001887  88.6244 271.4964 15.08839652 70306,6917.881,95.438,541.052,538.441,0.0
52562.0,STARLINK-3957,PAYLOAD,2023-08-17 15:53:57,15.088535,0.0001381,53.2175,356.6214,91.9723,268.1427,0.00045451,6.956e-05,0.0,0 STARLINK-3957,1 52562U 22051AF  23229.66247117  .00006956  00000-0  45451-3 0  9990,2 52562  53.2175 356.6214 0001381  91.9723 268.1427 15.08853500 70491,6917.839,95.437,540.659,538.749,0.0
52562.0,STARLINK-3957,PAYLOAD,2023-08-18 03:01:39,15.08843517,0.0001545,53.2168,354.5394,82.3225,277.7943,0.00019721,2.852e-05,0.0,0 STARLINK-3957,1 52562U 22051AF  23230.12615345  .00002852  00000-0  19721-3 0  9997,2 52562  53.2168 354.5394 0001545  82.3225 277.7943 15.08843517 70566,6917.87,95.437,540.803,538.666,0.0
52562.0,STARLINK-3957,PAYLOAD,2023-08-18 07:47:49,15.08830126,0.0001426,53.2177,353.6477,82.3836,277.7318,-1.1192e-05,-4.66e-06,0.0,0 STARLINK-3957,1 52562U 22051AF  23230.32487987 -.00000466  00000-0 -11192-4 0  9994,2 52562  53.2177 353.6477 0001426  82.3836 277.7318 15.08830126 70595,6917.911,95.438,540.762,538.789,0.0
